{
  "type": "FeatureCollection",
  "features": [
    {
      "type": "Feature",
      "properties": {
        "norad_id": 64694,
        "name": "GOSAT-GW (IBUKI GW)",
        "group": "resource",
        "lat": -5.493895227184165,
        "lon": 112.39539644996586,
        "alt_km": 672.7623623081627,
        "timestamp": "2025-12-23T20:42:36.730503+00:00",
        "meta_object_name": "GOSAT-GW (IBUKI GW)",
        "meta_object_id": "2025-141A",
        "meta_epoch": "2025-12-23T06:46:38.332704",
        "meta_mean_motion": 14.67565349,
        "meta_eccentricity": 0.00014317,
        "meta_inclination": 98.0438,
        "meta_ra_of_asc_node": 292.6047,
        "meta_arg_of_pericenter": 84.2556,
        "meta_mean_anomaly": 275.8811,
        "meta_ephemeris_type": 0,
        "meta_classification_type": "U",
        "meta_norad_cat_id": 64694,
        "meta_element_set_no": 999,
        "meta_rev_at_epoch": 2604,
        "meta_bstar": 0.00017570851,
        "meta_mean_motion_dot": 9.49e-06,
        "meta_mean_motion_ddot": 0,
        "tle_line1": "1 64694U 25141A   25357.28238811  .00000949  00000+0  17571-3 0  9992",
        "tle_line2": "2 64694  98.0438 292.6047 0001431  84.2556 275.8811 14.67565349 26046"
      },
      "geometry": {
        "type": "Point",
        "coordinates": [
          112.39539644996586,
          -5.493895227184165
        ]
      }
    },
    {
      "type": "Feature",
      "properties": {
        "norad_id": 64876,
        "name": "IONOSFERA-M 3",
        "group": "resource",
        "lat": 35.35247857636886,
        "lon": 145.5632299851583,
        "alt_km": 818.355119408664,
        "timestamp": "2025-12-23T20:42:36.730513+00:00",
        "meta_object_name": "IONOSFERA-M 3",
        "meta_object_id": "2025-155A",
        "meta_epoch": "2025-12-23T06:31:10.824384",
        "meta_mean_motion": 14.21443485,
        "meta_eccentricity": 0.0001911,
        "meta_inclination": 98.5798,
        "meta_ra_of_asc_node": 318.8404,
        "meta_arg_of_pericenter": 42.7474,
        "meta_mean_anomaly": 317.3852,
        "meta_ephemeris_type": 0,
        "meta_classification_type": "U",
        "meta_norad_cat_id": 64876,
        "meta_element_set_no": 999,
        "meta_rev_at_epoch": 2141,
        "meta_bstar": 5.3507482e-05,
        "meta_mean_motion_dot": 7.4e-07,
        "meta_mean_motion_ddot": 0,
        "tle_line1": "1 64876U 25155A   25357.27165306  .00000074  00000+0  53507-4 0  9995",
        "tle_line2": "2 64876  98.5798 318.8404 0001911  42.7474 317.3852 14.21443485 21410"
      },
      "geometry": {
        "type": "Point",
        "coordinates": [
          145.5632299851583,
          35.35247857636886
        ]
      }
    },
    {
      "type": "Feature",
      "properties": {
        "norad_id": 64877,
        "name": "IONOSFERA-M 4",
        "group": "resource",
        "lat": -34.886526947925944,
        "lon": -34.62317887034358,
        "alt_km": 826.6219269057392,
        "timestamp": "2025-12-23T20:42:36.730523+00:00",
        "meta_object_name": "IONOSFERA-M 4",
        "meta_object_id": "2025-155B",
        "meta_epoch": "2025-12-23T07:21:39.845952",
        "meta_mean_motion": 14.2144464,
        "meta_eccentricity": 0.00013396,
        "meta_inclination": 98.5798,
        "meta_ra_of_asc_node": 318.7938,
        "meta_arg_of_pericenter": 53.3725,
        "meta_mean_anomaly": 306.7576,
        "meta_ephemeris_type": 0,
        "meta_classification_type": "U",
        "meta_norad_cat_id": 64877,
        "meta_element_set_no": 999,
        "meta_rev_at_epoch": 2141,
        "meta_bstar": 5.1144422e-05,
        "meta_mean_motion_dot": 6.9e-07,
        "meta_mean_motion_ddot": 0,
        "tle_line1": "1 64877U 25155B   25357.30671118  .00000069  00000+0  51144-4 0  9992",
        "tle_line2": "2 64877  98.5798 318.7938 0001339  53.3725 306.7576 14.21444640 21412"
      },
      "geometry": {
        "type": "Point",
        "coordinates": [
          -34.62317887034358,
          -34.886526947925944
        ]
      }
    },
    {
      "type": "Feature",
      "properties": {
        "norad_id": 64899,
        "name": "MICROCARB",
        "group": "resource",
        "lat": -16.953463983617034,
        "lon": 75.48686900845343,
        "alt_km": 667.0262915760304,
        "timestamp": "2025-12-23T20:42:36.730533+00:00",
        "meta_object_name": "MICROCARB",
        "meta_object_id": "2025-156A",
        "meta_epoch": "2025-12-23T04:28:28.448832",
        "meta_mean_motion": 14.72073334,
        "meta_eccentricity": 0.00175884,
        "meta_inclination": 98.0012,
        "meta_ra_of_asc_node": 72.3639,
        "meta_arg_of_pericenter": 113.4217,
        "meta_mean_anomaly": 246.8841,
        "meta_ephemeris_type": 0,
        "meta_classification_type": "U",
        "meta_norad_cat_id": 64899,
        "meta_element_set_no": 999,
        "meta_rev_at_epoch": 2207,
        "meta_bstar": 0.00011775886,
        "meta_mean_motion_dot": 6.92e-06,
        "meta_mean_motion_ddot": 0,
        "tle_line1": "1 64899U 25156A   25357.18644038  .00000692  00000+0  11776-3 0  9992",
        "tle_line2": "2 64899  98.0012  72.3639 0017588 113.4217 246.8841 14.72073334 22074"
      },
      "geometry": {
        "type": "Point",
        "coordinates": [
          75.48686900845343,
          -16.953463983617034
        ]
      }
    },
    {
      "type": "Feature",
      "properties": {
        "norad_id": 64900,
        "name": "CO3D 3",
        "group": "resource",
        "lat": 30.7439699409977,
        "lon": -101.47494737273698,
        "alt_km": 503.4499592580005,
        "timestamp": "2025-12-23T20:42:36.730562+00:00",
        "meta_object_name": "CO3D 3",
        "meta_object_id": "2025-156B",
        "meta_epoch": "2025-12-23T05:50:23.724960",
        "meta_mean_motion": 15.20199974,
        "meta_eccentricity": 0.00013216,
        "meta_inclination": 97.434,
        "meta_ra_of_asc_node": 73.4601,
        "meta_arg_of_pericenter": 73.2947,
        "meta_mean_anomaly": 286.8433,
        "meta_ephemeris_type": 0,
        "meta_classification_type": "U",
        "meta_norad_cat_id": 64900,
        "meta_element_set_no": 999,
        "meta_rev_at_epoch": 2280,
        "meta_bstar": 0.00030508848,
        "meta_mean_motion_dot": 6.542e-05,
        "meta_mean_motion_ddot": 0,
        "tle_line1": "1 64900U 25156B   25357.24333015  .00006542  00000+0  30509-3 0  9997",
        "tle_line2": "2 64900  97.4340  73.4601 0001321  73.2947 286.8433 15.20199974 22801"
      },
      "geometry": {
        "type": "Point",
        "coordinates": [
          -101.47494737273698,
          30.7439699409977
        ]
      }
    },
    {
      "type": "Feature",
      "properties": {
        "norad_id": 64901,
        "name": "CO3D 4",
        "group": "resource",
        "lat": 31.486219046931378,
        "lon": -101.34238734755932,
        "alt_km": 502.5368819410978,
        "timestamp": "2025-12-23T20:42:36.730573+00:00",
        "meta_object_name": "CO3D 4",
        "meta_object_id": "2025-156C",
        "meta_epoch": "2025-12-22T17:12:19.854144",
        "meta_mean_motion": 15.20218181,
        "meta_eccentricity": 0.00013582,
        "meta_inclination": 97.4339,
        "meta_ra_of_asc_node": 72.9412,
        "meta_arg_of_pericenter": 164.3046,
        "meta_mean_anomaly": 195.8231,
        "meta_ephemeris_type": 0,
        "meta_classification_type": "U",
        "meta_norad_cat_id": 64901,
        "meta_element_set_no": 999,
        "meta_rev_at_epoch": 2272,
        "meta_bstar": 0.00027567855,
        "meta_mean_motion_dot": 5.908e-05,
        "meta_mean_motion_ddot": 0,
        "tle_line1": "1 64901U 25156C   25356.71689646  .00005908  00000+0  27568-3 0  9999",
        "tle_line2": "2 64901  97.4339  72.9412 0001358 164.3046 195.8231 15.20218181 22724"
      },
      "geometry": {
        "type": "Point",
        "coordinates": [
          -101.34238734755932,
          31.486219046931378
        ]
      }
    },
    {
      "type": "Feature",
      "properties": {
        "norad_id": 64902,
        "name": "CO3D 2",
        "group": "resource",
        "lat": -29.454637607155405,
        "lon": 78.19847742208464,
        "alt_km": 511.23321622629464,
        "timestamp": "2025-12-23T20:42:36.730583+00:00",
        "meta_object_name": "CO3D 2",
        "meta_object_id": "2025-156D",
        "meta_epoch": "2025-12-23T06:37:23.002752",
        "meta_mean_motion": 15.20203335,
        "meta_eccentricity": 8.798e-05,
        "meta_inclination": 97.4341,
        "meta_ra_of_asc_node": 73.3912,
        "meta_arg_of_pericenter": 66.7598,
        "meta_mean_anomaly": 293.3729,
        "meta_ephemeris_type": 0,
        "meta_classification_type": "U",
        "meta_norad_cat_id": 64902,
        "meta_element_set_no": 999,
        "meta_rev_at_epoch": 2280,
        "meta_bstar": 0.00047935129,
        "meta_mean_motion_dot": 0.00010324,
        "meta_mean_motion_ddot": 0,
        "tle_line1": "1 64902U 25156D   25357.27596068  .00010324  00000+0  47935-3 0  9995",
        "tle_line2": "2 64902  97.4341  73.3912 0000879  66.7598 293.3729 15.20203335 22802"
      },
      "geometry": {
        "type": "Point",
        "coordinates": [
          78.19847742208464,
          -29.454637607155405
        ]
      }
    }
  ]
}